{
  "norad_id": 62779,
  "name": "STARLINK-33568",
  "history": [
    {
      "epoch": "2026-03-28T18:39:01.538496",
      "apogee_km": 475.8896290693947,
      "perigee_km": 474.4505716444619,
      "latitude_deg": 50.03977639767174,
      "longitude_deg": 172.50170944002457,
      "semi_major_axis_km": 6853.307100356928,
      "eccentricity": 0.00010499,
      "inclination_deg": 53.1582,
      "raan_deg": 233.7869,
      "arg_perigee_deg": 93.4944,
      "mean_anomaly_deg": 266.6177,
      "mean_motion_rev_day": 15.30215061
    },
    {
      "epoch": "2026-03-29T02:29:17.729952",
      "apogee_km": 476.0309559547695,
      "perigee_km": 474.36696598344497,
      "latitude_deg": 8.920483819791666,
      "longitude_deg": -156.1469667199999,
      "semi_major_axis_km": 6853.335960969107,
      "eccentricity": 0.0001214,
      "inclination_deg": 53.1589,
      "raan_deg": 232.269,
      "arg_perigee_deg": 84.681,
      "mean_anomaly_deg": 275.433,
      "mean_motion_rev_day": 15.30205395
    }
  ]
}